ONEWEB-0043             
1 45149U 20008U   23318.13384923  .00000266  00000+0  72573-3 0  9993
2 45149  87.8920 224.1527 0002111  63.6979 296.4365 13.10372603185068
ONEWEB-0044             
1 45150U 20008V   23317.47585995 -.00000494  00000+0 -14528-2 0  9993
2 45150  87.8926 224.2809 0001989  65.8679 294.2656 13.10369460184495
ONEWEB-0045             
1 45151U 20008W   23317.92999756  .00002673  00000+0  75055-2 0  9999
2 45151  87.8988 209.0573 0001698  77.0879 283.0438 13.11406872186381
ONEWEB-0047             
1 45152U 20008X   23317.46773726 -.00000605  00000+0 -17709-2 0  9993
2 45152  87.8925 224.2837 0001795  70.3439 289.7882 13.10368607184219
ONEWEB-0048             
1 45153U 20008Y   23317.46286114 -.00000508  00000+0 -14915-2 0  9992
2 45153  87.8926 224.2958 0001775  71.2289 288.9031 13.10369940183820
ONEWEB-0049             
1 45154U 20008Z   23317.46448494 -.00000568  00000+0 -16628-2 0  9993
2 45154  87.8931 224.2667 0001874  73.5893 286.5440 13.10371226184043
ONEWEB-0051             
1 45155U 20008AA  23317.92839458  .00000496  00000+0  13641-2 0  9999
2 45155  87.8999 209.0932 0001415  77.8617 282.2669 13.11417364187062
ONEWEB-0052             
1 45156U 20008AB  23318.14845878 -.00000466  00000+0 -13724-2 0  9999
2 45156  87.8928 224.1156 0002446  74.7358 285.4040 13.10369436184806
